{
  "links" : {
    "next" : "https://api.nasa.gov/neo/rest/v1/feed?start_date=2010-10-23&end_date=2010-10-23&detailed=true&api_key=t0TVs3DtDT2H8Oy2Zy8m2eVrNsAVKAexjcZXUckd",
    "prev" : "https://api.nasa.gov/neo/rest/v1/feed?start_date=2010-10-21&end_date=2010-10-21&detailed=true&api_key=t0TVs3DtDT2H8Oy2Zy8m2eVrNsAVKAexjcZXUckd",
    "self" : "https://api.nasa.gov/neo/rest/v1/feed?start_date=2010-10-22&end_date=2010-10-22&detailed=true&api_key=t0TVs3DtDT2H8Oy2Zy8m2eVrNsAVKAexjcZXUckd"
  },
  "element_count" : 7,
  "near_earth_objects" : {
    "2010-10-22" : [ {
      "links" : {
        "self" : "https://api.nasa.gov/neo/rest/v1/neo/2333578?api_key=t0TVs3DtDT2H8Oy2Zy8m2eVrNsAVKAexjcZXUckd"
      },
      "neo_reference_id" : "2333578",
      "name" : "333578 (2006 KM103)",
      "nasa_jpl_url" : "http://ssd.jpl.nasa.gov/sbdb.cgi?sstr=2333578",
      "absolute_magnitude_h" : 20.2,
      "estimated_diameter" : {
        "kilometers" : {
          "estimated_diameter_min" : 0.2424124811,
          "estimated_diameter_max" : 0.5420507863
        },
        "meters" : {
          "estimated_diameter_min" : 242.4124811008,
          "estimated_diameter_max" : 542.0507863358
        },
        "miles" : {
          "estimated_diameter_min" : 0.1506280858,
          "estimated_diameter_max" : 0.3368146392
        },
        "feet" : {
          "estimated_diameter_min" : 795.3165644948,
          "estimated_diameter_max" : 1778.3819018419
        }
      },
      "is_potentially_hazardous_asteroid" : true,
      "close_approach_data" : [ {
        "close_approach_date" : "2010-10-22",
        "epoch_date_close_approach" : 1287730800000,
        "relative_velocity" : {
          "kilometers_per_second" : "10.2568687241",
          "kilometers_per_hour" : "36924.7274066552",
          "miles_per_hour" : "22943.5896488742"
        },
        "miss_distance" : {
          "astronomical" : "0.1740287674",
          "lunar" : "67.6971893311",
          "kilometers" : "26034334",
          "miles" : "16176985"
        },
        "orbiting_body" : "Earth"
      } ],
      "orbital_data" : {
        "orbit_id" : "83",
        "orbit_determination_date" : "2017-04-06 09:23:27",
        "orbit_uncertainty" : "0",
        "minimum_orbit_intersection" : ".0130652",
        "jupiter_tisserand_invariant" : "4.304",
        "epoch_osculation" : "2458000.5",
        "eccentricity" : ".3768073209959183",
        "semi_major_axis" : "1.573763858961513",
        "inclination" : "11.68216017014653",
        "ascending_node_longitude" : "169.5007233624131",
        "orbital_period" : "721.1203945244606",
        "perihelion_distance" : ".9807581153860272",
        "perihelion_argument" : "196.94841610692",
        "aphelion_distance" : "2.166769602536999",
        "perihelion_time" : "2457645.294567264879",
        "mean_anomaly" : "177.3267775472767",
        "mean_motion" : ".4992231570948708",
        "equinox" : "J2000"
      }
    }, {
      "links" : {
        "self" : "https://api.nasa.gov/neo/rest/v1/neo/3387334?api_key=t0TVs3DtDT2H8Oy2Zy8m2eVrNsAVKAexjcZXUckd"
      },
      "neo_reference_id" : "3387334",
      "name" : "(2007 TD)",
      "nasa_jpl_url" : "http://ssd.jpl.nasa.gov/sbdb.cgi?sstr=3387334",
      "absolute_magnitude_h" : 24.4,
      "estimated_diameter" : {
        "kilometers" : {
          "estimated_diameter_min" : 0.0350392641,
          "estimated_diameter_max" : 0.0783501764
        },
        "meters" : {
          "estimated_diameter_min" : 35.0392641108,
          "estimated_diameter_max" : 78.3501764334
        },
        "miles" : {
          "estimated_diameter_min" : 0.0217723826,
          "estimated_diameter_max" : 0.0486845275
        },
        "feet" : {
          "estimated_diameter_min" : 114.9582192654,
          "estimated_diameter_max" : 257.0543928497
        }
      },
      "is_potentially_hazardous_asteroid" : false,
      "close_approach_data" : [ {
        "close_approach_date" : "2010-10-22",
        "epoch_date_close_approach" : 1287730800000,
        "relative_velocity" : {
          "kilometers_per_second" : "27.4431079937",
          "kilometers_per_hour" : "98795.1887773571",
          "miles_per_hour" : "61387.4882711306"
        },
        "miss_distance" : {
          "astronomical" : "0.4579256949",
          "lunar" : "178.133102417",
          "kilometers" : "68504712",
          "miles" : "42566856"
        },
        "orbiting_body" : "Earth"
      } ],
      "orbital_data" : {
        "orbit_id" : "11",
        "orbit_determination_date" : "2017-04-06 09:05:54",
        "orbit_uncertainty" : "7",
        "minimum_orbit_intersection" : ".00568196",
        "jupiter_tisserand_invariant" : "8.152",
        "epoch_osculation" : "2458000.5",
        "eccentricity" : ".5346643854525518",
        "semi_major_axis" : ".6902967959994935",
        "inclination" : "3.597700240360242",
        "ascending_node_longitude" : "185.5826068905559",
        "orbital_period" : "209.4846537572865",
        "perihelion_distance" : ".3212196837865588",
        "perihelion_argument" : "12.68957258582139",
        "aphelion_distance" : "1.059373908212428",
        "perihelion_time" : "2458055.989066764616",
        "mean_anomaly" : "264.6418738701183",
        "mean_motion" : "1.718502971664473",
        "equinox" : "J2000"
      }
    }, {
      "links" : {
        "self" : "https://api.nasa.gov/neo/rest/v1/neo/3516489?api_key=t0TVs3DtDT2H8Oy2Zy8m2eVrNsAVKAexjcZXUckd"
      },
      "neo_reference_id" : "3516489",
      "name" : "(2010 GP67)",
      "nasa_jpl_url" : "http://ssd.jpl.nasa.gov/sbdb.cgi?sstr=3516489",
      "absolute_magnitude_h" : 22.4,
      "estimated_diameter" : {
        "kilometers" : {
          "estimated_diameter_min" : 0.0880146521,
          "estimated_diameter_max" : 0.1968067451
        },
        "meters" : {
          "estimated_diameter_min" : 88.0146520901,
          "estimated_diameter_max" : 196.8067450894
        },
        "miles" : {
          "estimated_diameter_min" : 0.0546897524,
          "estimated_diameter_max" : 0.122290004
        },
        "feet" : {
          "estimated_diameter_min" : 288.7619911632,
          "estimated_diameter_max" : 645.6914415591
        }
      },
      "is_potentially_hazardous_asteroid" : false,
      "close_approach_data" : [ {
        "close_approach_date" : "2010-10-22",
        "epoch_date_close_approach" : 1287730800000,
        "relative_velocity" : {
          "kilometers_per_second" : "7.5202628197",
          "kilometers_per_hour" : "27072.9461507554",
          "miles_per_hour" : "16822.0759012847"
        },
        "miss_distance" : {
          "astronomical" : "0.2032138589",
          "lunar" : "79.0501861572",
          "kilometers" : "30400360",
          "miles" : "18889908"
        },
        "orbiting_body" : "Earth"
      } ],
      "orbital_data" : {
        "orbit_id" : "14",
        "orbit_determination_date" : "2017-08-29 06:19:11",
        "orbit_uncertainty" : "0",
        "minimum_orbit_intersection" : ".0179445",
        "jupiter_tisserand_invariant" : "5.566",
        "epoch_osculation" : "2458000.5",
        "eccentricity" : ".1073199442521597",
        "semi_major_axis" : "1.114015101565765",
        "inclination" : "13.27133880998655",
        "ascending_node_longitude" : "211.4593746941593",
        "orbital_period" : "429.4721873313424",
        "perihelion_distance" : ".994459062969663",
        "perihelion_argument" : "44.61903611767051",
        "aphelion_distance" : "1.233571140161867",
        "perihelion_time" : "2457916.670815468142",
        "mean_anomaly" : "70.26882606529705",
        "mean_motion" : ".8382382156967387",
        "equinox" : "J2000"
      }
    } ]
  }
}